OBJECT_NAME,OBJECT_ID,EPOCH,MEAN_MOTION,ECCENTRICITY,INCLINATION,RA_OF_ASC_NODE,ARG_OF_PERICENTER,MEAN_ANOMALY,EPHEMERIS_TYPE,CLASSIFICATION_TYPE,NORAD_CAT_ID,ELEMENT_SET_NO,REV_AT_EPOCH,BSTAR,MEAN_MOTION_DOT,MEAN_MOTION_DDOT
STARLINK-30809,2023-167J,2025-03-11T01:42:14.863968,15.02525477,.0001253,43.0033,322.0715,267.3646,92.7053,0,U,58183,999,7620,.46284E-3,.6052E-4,0
STARLINK-30801,2023-167K,2025-03-10T17:38:48.706944,15.02530286,.0001227,43.0045,323.8508,263.7696,96.3007,0,U,58184,999,7620,.77474E-5,-.99E-6,0
STARLINK-30793,2023-167L,2025-03-10T02:19:43.099968,15.02532060,.0001334,43.0049,326.8003,266.6650,93.4039,0,U,58185,999,7611,.14261E-4,-.11E-6,0
STARLINK-30755,2023-167M,2025-03-11T03:00:23.970816,15.02526508,.000111,43.0041,321.6186,265.8694,94.2022,0,U,58186,999,7621,.83867E-4,.929E-5,0
STARLINK-30760,2023-167N,2025-03-11T02:10:51.346848,15.02525627,.0001655,43.0026,321.3562,256.1144,103.9514,0,U,58187,999,7626,-.85114E-4,-.1353E-4,0
STARLINK-30826,2023-167P,2025-03-11T01:23:05.093376,15.02474278,.0000945,43.0027,321.9653,267.6585,92.4149,0,U,58188,999,7620,.76711E-4,.831E-5,0
STARLINK-30796,2023-167Q,2025-03-11T03:03:35.607744,15.02532511,.0001148,43.0039,321.6317,266.8917,93.1794,0,U,58189,999,7621,-.38101E-4,-.718E-5,0
STARLINK-30820,2023-167R,2025-03-11T03:08:23.161632,15.02552045,.000117,43.0061,321.6528,268.0969,91.9740,0,U,58190,999,7626,-.40662E-3,-.5694E-4,0
STARLINK-30785,2023-167S,2025-03-11T02:49:13.888704,15.02527569,.0001173,43.0024,321.5567,278.8214,81.2495,0,U,58191,999,7621,-.20404E-3,-.2958E-4,0
STARLINK-30807,2023-167T,2025-03-10T17:19:38.368704,15.02526908,.0000932,43.0015,323.7492,274.0776,85.9960,0,U,58192,999,7620,-.37399E-4,-.708E-5,0
STARLINK-30822,2023-167U,2025-03-10T17:10:02.947296,15.02524981,.0001157,43.0018,323.6987,263.2382,96.8328,0,U,58193,999,7620,-.51531E-4,-.899E-5,0
STARLINK-30830,2023-167V,2025-03-11T01:02:17.867904,15.02527027,.0001083,43.0052,321.8466,276.4218,83.6501,0,U,58194,999,7625,-.1456E-3,-.2169E-4,0
STARLINK-30827,2023-167W,2025-03-10T01:03:10.209024,15.02531724,.0001483,43.0050,327.2649,262.5072,97.5602,0,U,58195,999,7610,.19306E-4,.57E-6,0
STARLINK-30798,2023-167X,2025-03-10T18:02:46.869504,15.02533667,.0001285,43.0047,323.9724,276.2698,83.7998,0,U,58196,999,7620,.17629E-4,.34E-6,0
STARLINK-30762,2023-167Y,2025-03-11T01:03:52.021440,15.02581761,.0001766,43.0021,321.8679,266.1318,93.9322,0,U,58197,999,7620,-.81651E-3,-.11229E-3,0
STARLINK-30800,2023-170A,2025-03-10T21:40:50.690208,15.02535533,.0001262,43.0058,12.8839,265.4013,94.6686,0,U,58206,999,7555,.75595E-4,.818E-5,0
STARLINK-30845,2023-170B,2025-03-11T04:46:45.475680,15.02522616,.0000936,43.0025,10.8273,285.7706,74.3033,0,U,58207,999,7563,-.16527E-3,-.2434E-4,0
STARLINK-30841,2023-170C,2025-03-11T02:42:24.754464,15.02534109,.0001422,43.0061,11.8595,264.9413,95.1267,0,U,58208,999,7548,.22429E-4,.99E-6,0
STARLINK-30839,2023-170D,2025-03-10T21:26:28.630752,15.02524148,.0001086,43.0030,12.8097,271.3910,88.6808,0,U,58209,999,7555,-.91122E-4,-.1434E-4,0
STARLINK-30846,2023-170E,2025-03-11T02:18:27.385056,15.02520498,.0001016,43.0043,11.7502,268.4558,91.6168,0,U,58210,999,7548,-.81222E-6,-.214E-5,0
STARLINK-30838,2023-170F,2025-03-10T21:16:52.583808,15.02528304,.0001494,43.0091,12.7588,277.2552,82.8120,0,U,58211,999,7557,.13465E-4,-.22E-6,0
STARLINK-30837,2023-170G,2025-03-10T21:36:03.354912,15.02528533,.0000743,43.0022,12.8407,280.0625,80.0133,0,U,58212,999,7555,-.61039E-4,-.1028E-4,0
STARLINK-30813,2023-170H,2025-03-11T03:34:59.545056,15.02534734,.0001189,43.0054,11.2896,276.0125,84.0582,0,U,58213,999,7549,.74358E-4,.801E-5,0
STARLINK-30805,2023-170J,2025-03-10T21:07:17.342976,15.02532315,.0001153,43.0048,12.7095,269.5555,90.5155,0,U,58214,999,7555,.89586E-4,.1007E-4,0
STARLINK-30851,2023-170K,2025-03-10T21:02:30.385248,15.02523822,.0000705,43.0046,12.6858,279.6124,80.4639,0,U,58215,999,7555,-.11705E-3,-.1784E-4,0
STARLINK-30818,2023-170M,2025-03-10T20:52:54.904224,15.02524252,.0001391,43.0077,12.6334,268.8169,91.2514,0,U,58217,999,7555,-.21676E-4,-.496E-5,0
STARLINK-30794,2023-170N,2025-03-11T05:20:17.640096,15.02545701,.0001084,43.0034,10.9604,273.1045,86.9674,0,U,58218,999,7562,.99903E-4,.1146E-4,0
