STARLINK-30809          
1 58183U 23167J   25070.07100537  .00006052  00000+0  46284-3 0  9990
2 58183  43.0033 322.0715 0001253 267.3646  92.7053 15.02525477 76204
STARLINK-30801          
1 58184U 23167K   25069.73528596 -.00000099  00000+0  77474-5 0  9994
2 58184  43.0045 323.8508 0001227 263.7696  96.3007 15.02530286 76206
STARLINK-30793          
1 58185U 23167L   25069.09702662 -.00000011  00000+0  14261-4 0  9990
2 58185  43.0049 326.8003 0001334 266.6650  93.4039 15.02532060 76110
STARLINK-30755          
1 58186U 23167M   25070.12527744  .00000929  00000+0  83867-4 0  9998
2 58186  43.0041 321.6186 0001110 265.8694  94.2022 15.02526508 76211
STARLINK-30760          
1 58187U 23167N   25070.09087207 -.00001353  00000+0 -85114-4 0  9991
2 58187  43.0026 321.3562 0001655 256.1144 103.9514 15.02525627 76267
STARLINK-30826          
1 58188U 23167P   25070.05769784  .00000831  00000+0  76711-4 0  9996
2 58188  43.0027 321.9653 0000945 267.6585  92.4149 15.02474278 76208
STARLINK-30796          
1 58189U 23167Q   25070.12749546 -.00000718  00000+0 -38101-4 0  9996
2 58189  43.0039 321.6317 0001148 266.8917  93.1794 15.02532511 76212
STARLINK-30820          
1 58190U 23167R   25070.13082363 -.00005694  00000+0 -40662-3 0  9998
2 58190  43.0061 321.6528 0001170 268.0969  91.9740 15.02552045 76265
STARLINK-30785          
1 58191U 23167S   25070.11752186 -.00002958  00000+0 -20404-3 0  9996
2 58191  43.0024 321.5567 0001173 278.8214  81.2495 15.02527569 76219
STARLINK-30807          
1 58192U 23167T   25069.72197186 -.00000708  00000+0 -37399-4 0  9998
2 58192  43.0015 323.7492 0000932 274.0776  85.9960 15.02526908 76207
STARLINK-30822          
1 58193U 23167U   25069.71531189 -.00000899  00000+0 -51531-4 0  9998
2 58193  43.0018 323.6987 0001157 263.2382  96.8328 15.02524981 76200
STARLINK-30830          
1 58194U 23167V   25070.04326236 -.00002169  00000+0 -14560-3 0  9994
2 58194  43.0052 321.8466 0001083 276.4218  83.6501 15.02527027 76259
STARLINK-30827          
1 58195U 23167W   25069.04386816  .00000057  00000+0  19306-4 0  9999
2 58195  43.0050 327.2649 0001483 262.5072  97.5602 15.02531724 76108
STARLINK-30798          
1 58196U 23167X   25069.75193136  .00000034  00000+0  17629-4 0  9990
2 58196  43.0047 323.9724 0001285 276.2698  83.7998 15.02533667 76202
STARLINK-30762          
1 58197U 23167Y   25070.04435210 -.00011229  00000+0 -81651-3 0  9992
2 58197  43.0021 321.8679 0001766 266.1318  93.9322 15.02581761 76204
STARLINK-30800          
1 58206U 23170A   25069.90336447  .00000818  00000+0  75595-4 0  9993
2 58206  43.0058  12.8839 0001262 265.4013  94.6686 15.02535533 75559
STARLINK-30845          
1 58207U 23170B   25070.19913745 -.00002434  00000+0 -16527-3 0  9996
2 58207  43.0025  10.8273 0000936 285.7706  74.3033 15.02522616 75633
STARLINK-30841          
1 58208U 23170C   25070.11278651  .00000099  00000+0  22429-4 0  9991
2 58208  43.0061  11.8595 0001422 264.9413  95.1267 15.02534109 75480
STARLINK-30839          
1 58209U 23170D   25069.89338693 -.00001434  00000+0 -91122-4 0  9990
2 58209  43.0030  12.8097 0001086 271.3910  88.6808 15.02524148 75553
STARLINK-30846          
1 58210U 23170E   25070.09615029 -.00000214  00000+0 -81222-6 0  9994
2 58210  43.0043  11.7502 0001016 268.4558  91.6168 15.02520498 75485
STARLINK-30838          
1 58211U 23170F   25069.88671972 -.00000022  00000+0  13465-4 0  9997
2 58211  43.0091  12.7588 0001494 277.2552  82.8120 15.02528304 75570
STARLINK-30837          
1 58212U 23170G   25069.90003883 -.00001028  00000+0 -61039-4 0  9999
2 58212  43.0022  12.8407 0000743 280.0625  80.0133 15.02528533 75551
STARLINK-30813          
1 58213U 23170H   25070.14930029  .00000801  00000+0  74358-4 0  9993
2 58213  43.0054  11.2896 0001189 276.0125  84.0582 15.02534734 75492
STARLINK-30805          
1 58214U 23170J   25069.88006184  .00001007  00000+0  89586-4 0  9997
2 58214  43.0048  12.7095 0001153 269.5555  90.5155 15.02532315 75556
STARLINK-30851          
1 58215U 23170K   25069.87674057 -.00001784  00000+0 -11705-3 0  9998
2 58215  43.0046  12.6858 0000705 279.6124  80.4639 15.02523822 75555
STARLINK-30818          
1 58217U 23170M   25069.87007991 -.00000496  00000+0 -21676-4 0  9995
2 58217  43.0077  12.6334 0001391 268.8169  91.2514 15.02524252 75551
STARLINK-30794          
1 58218U 23170N   25070.22242639  .00001146  00000+0  99903-4 0  9996
2 58218  43.0034  10.9604 0001084 273.1045  86.9674 15.02545701 75625
